<?xml version="1.0" encoding="UTF-8"?>
<TrainingCenterDatabase xsi:schemaLocation="http://www.garmin.com/xmlschemas/TrainingCenterDatabase/v2 http://www.garmin.com/xmlschemas/TrainingCenterDatabasev2.xsd" xmlns:ns5="http://www.garmin.com/xmlschemas/ActivityGoals/v1" xmlns:ns3="http://www.garmin.com/xmlschemas/ActivityExtension/v2" xmlns:ns2="http://www.garmin.com/xmlschemas/UserProfile/v2" xmlns="http://www.garmin.com/xmlschemas/TrainingCenterDatabase/v2" xmlns:xsi="http://www.w3.org/2001/XMLSchema-instance">
 <Folders/>
 <Courses>
  <Course>
   <Name>CO - UNB</Name>
   <Lap>
    <TotalTimeSeconds>1566.454468006086</TotalTimeSeconds>
    <DistanceMeters>3080.793055422616</DistanceMeters>
    <Intensity>Active</Intensity>
   </Lap>
   <Track>
    <Trackpoint>
     <Time>2026-04-28T21:18:58+00:00</Time>
     <Position>
      <LatitudeDegrees>-15.7599800</LatitudeDegrees>
      <LongitudeDegrees>-47.8627600</LongitudeDegrees>
     </Position>
     <AltitudeMeters>1006.0400000000001</AltitudeMeters>
     <DistanceMeters>0.0</DistanceMeters>
    </Trackpoint>
    <Trackpoint>
     <Time>2026-04-28T21:19:08+00:00</Time>
     <Position>
      <LatitudeDegrees>-15.7599200</LatitudeDegrees>
      <LongitudeDegrees>-47.8627200</LongitudeDegrees>
     </Position>
     <AltitudeMeters>1005.77</AltitudeMeters>
     <DistanceMeters>7.934037002622482</DistanceMeters>
    </Trackpoint>
    <Trackpoint>
     <Time>2026-04-28T21:19:19+00:00</Time>
     <Position>
      <LatitudeDegrees>-15.7598300</LatitudeDegrees>
      <LongitudeDegrees>-47.8625900</LongitudeDegrees>
     </Position>
     <AltitudeMeters>1005.4000000000001</AltitudeMeters>
     <DistanceMeters>25.08704000924141</DistanceMeters>
    </Trackpoint>
    <Trackpoint>
     <Time>2026-04-28T21:19:29+00:00</Time>
     <Position>
      <LatitudeDegrees>-15.7597900</LatitudeDegrees>
      <LongitudeDegrees>-47.8623500</LongitudeDegrees>
     </Position>
     <AltitudeMeters>1005.1800000000002</AltitudeMeters>
     <DistanceMeters>51.176533059867936</DistanceMeters>
    </Trackpoint>
    <Trackpoint>
     <Time>2026-04-28T21:19:40+00:00</Time>
     <Position>
      <LatitudeDegrees>-15.7597900</LatitudeDegrees>
      <LongitudeDegrees>-47.8623600</LongitudeDegrees>
     </Position>
     <AltitudeMeters>1005.1800000000002</AltitudeMeters>
     <DistanceMeters>51.176533059867936</DistanceMeters>
    </Trackpoint>
    <Trackpoint>
     <Time>2026-04-28T21:19:51+00:00</Time>
     <Position>
      <LatitudeDegrees>-15.7597800</LatitudeDegrees>
      <LongitudeDegrees>-47.8623100</LongitudeDegrees>
     </Position>
     <AltitudeMeters>1005.15</AltitudeMeters>
     <DistanceMeters>56.64655103643861</DistanceMeters>
    </Trackpoint>
    <Trackpoint>
     <Time>2026-04-28T21:20:01+00:00</Time>
     <Position>
      <LatitudeDegrees>-15.7598600</LatitudeDegrees>
      <LongitudeDegrees>-47.8620400</LongitudeDegrees>
     </Position>
     <AltitudeMeters>1005.0300000000001</AltitudeMeters>
     <DistanceMeters>86.90633047251848</DistanceMeters>
    </Trackpoint>
    <Trackpoint>
     <Time>2026-04-28T21:20:12+00:00</Time>
     <Position>
      <LatitudeDegrees>-15.7598300</LatitudeDegrees>
      <LongitudeDegrees>-47.8618900</LongitudeDegrees>
     </Position>
     <AltitudeMeters>1005.1100000000001</AltitudeMeters>
     <DistanceMeters>103.31637975331276</DistanceMeters>
    </Trackpoint>
    <Trackpoint>
     <Time>2026-04-28T21:20:23+00:00</Time>
     <Position>
      <LatitudeDegrees>-15.7598300</LatitudeDegrees>
      <LongitudeDegrees>-47.8617500</LongitudeDegrees>
     </Position>
     <AltitudeMeters>1005.1300000000001</AltitudeMeters>
     <DistanceMeters>118.31204923469194</DistanceMeters>
    </Trackpoint>
    <Trackpoint>
     <Time>2026-04-28T21:20:33+00:00</Time>
     <Position>
      <LatitudeDegrees>-15.7597900</LatitudeDegrees>
      <LongitudeDegrees>-47.8615400</LongitudeDegrees>
     </Position>
     <AltitudeMeters>1005.1800000000002</AltitudeMeters>
     <DistanceMeters>141.241868184237</DistanceMeters>
    </Trackpoint>
    <Trackpoint>
     <Time>2026-04-28T21:20:44+00:00</Time>
     <Position>
      <LatitudeDegrees>-15.7597900</LatitudeDegrees>
      <LongitudeDegrees>-47.8613100</LongitudeDegrees>
     </Position>
     <AltitudeMeters>1005.44</AltitudeMeters>
     <DistanceMeters>165.87761575733424</DistanceMeters>
    </Trackpoint>
    <Trackpoint>
     <Time>2026-04-28T21:20:55+00:00</Time>
     <Position>
      <LatitudeDegrees>-15.7598700</LatitudeDegrees>
      <LongitudeDegrees>-47.8605900</LongitudeDegrees>
     </Position>
     <AltitudeMeters>1005.4500000000002</AltitudeMeters>
     <DistanceMeters>243.51046853859907</DistanceMeters>
    </Trackpoint>
    <Trackpoint>
     <Time>2026-04-28T21:21:05+00:00</Time>
     <Position>
      <LatitudeDegrees>-15.7599400</LatitudeDegrees>
      <LongitudeDegrees>-47.8602500</LongitudeDegrees>
     </Position>
     <AltitudeMeters>1005.8100000000001</AltitudeMeters>
     <DistanceMeters>280.75249693170304</DistanceMeters>
    </Trackpoint>
    <Trackpoint>
     <Time>2026-04-28T21:21:16+00:00</Time>
     <Position>
      <LatitudeDegrees>-15.7599800</LatitudeDegrees>
      <LongitudeDegrees>-47.8597400</LongitudeDegrees>
     </Position>
     <AltitudeMeters>1005.47</AltitudeMeters>
     <DistanceMeters>335.56064410539744</DistanceMeters>
    </Trackpoint>
    <Trackpoint>
     <Time>2026-04-28T21:21:27+00:00</Time>
     <Position>
      <LatitudeDegrees>-15.7601000</LatitudeDegrees>
      <LongitudeDegrees>-47.8589200</LongitudeDegrees>
     </Position>
     <AltitudeMeters>1005.26</AltitudeMeters>
     <DistanceMeters>424.4019308071354</DistanceMeters>
    </Trackpoint>
    <Trackpoint>
     <Time>2026-04-28T21:21:37+00:00</Time>
     <Position>
      <LatitudeDegrees>-15.7601100</LatitudeDegrees>
      <LongitudeDegrees>-47.8588700</LongitudeDegrees>
     </Position>
     <AltitudeMeters>1005.2700000000001</AltitudeMeters>
     <DistanceMeters>429.8719405188257</DistanceMeters>
    </Trackpoint>
    <Trackpoint>
     <Time>2026-04-28T21:21:48+00:00</Time>
     <Position>
      <LatitudeDegrees>-15.7600600</LatitudeDegrees>
      <LongitudeDegrees>-47.8585700</LongitudeDegrees>
     </Position>
     <AltitudeMeters>1005.1700000000001</AltitudeMeters>
     <DistanceMeters>462.4837639440003</DistanceMeters>
    </Trackpoint>
    <Trackpoint>
     <Time>2026-04-28T21:21:59+00:00</Time>
     <Position>
      <LatitudeDegrees>-15.7600600</LatitudeDegrees>
      <LongitudeDegrees>-47.8582800</LongitudeDegrees>
     </Position>
     <AltitudeMeters>1005.2</AltitudeMeters>
     <DistanceMeters>493.5461869654306</DistanceMeters>
    </Trackpoint>
    <Trackpoint>
     <Time>2026-04-28T21:22:09+00:00</Time>
     <Position>
      <LatitudeDegrees>-15.7599800</LatitudeDegrees>
      <LongitudeDegrees>-47.8580300</LongitudeDegrees>
     </Position>
     <AltitudeMeters>1005.1300000000001</AltitudeMeters>
     <DistanceMeters>521.7655774041033</DistanceMeters>
    </Trackpoint>
    <Trackpoint>
     <Time>2026-04-28T21:22:20+00:00</Time>
     <Position>
      <LatitudeDegrees>-15.7599900</LatitudeDegrees>
      <LongitudeDegrees>-47.8580300</LongitudeDegrees>
     </Position>
     <AltitudeMeters>1005.1400000000001</AltitudeMeters>
     <DistanceMeters>521.7655774041033</DistanceMeters>
    </Trackpoint>
    <Trackpoint>
     <Time>2026-04-28T21:22:31+00:00</Time>
     <Position>
      <LatitudeDegrees>-15.7598700</LatitudeDegrees>
      <LongitudeDegrees>-47.8578600</LongitudeDegrees>
     </Position>
     <AltitudeMeters>1005.0000000000001</AltitudeMeters>
     <DistanceMeters>544.3473672561003</DistanceMeters>
    </Trackpoint>
    <Trackpoint>
     <Time>2026-04-28T21:22:41+00:00</Time>
     <Position>
      <LatitudeDegrees>-15.7597800</LatitudeDegrees>
      <LongitudeDegrees>-47.8577900</LongitudeDegrees>
     </Position>
     <AltitudeMeters>1004.89</AltitudeMeters>
     <DistanceMeters>556.8593626002419</DistanceMeters>
    </Trackpoint>
    <Trackpoint>
     <Time>2026-04-28T21:22:52+00:00</Time>
     <Position>
      <LatitudeDegrees>-15.7597400</LatitudeDegrees>
      <LongitudeDegrees>-47.8577800</LongitudeDegrees>
     </Position>
     <AltitudeMeters>1004.89</AltitudeMeters>
     <DistanceMeters>561.438233908202</DistanceMeters>
    </Trackpoint>
    <Trackpoint>
     <Time>2026-04-28T21:23:03+00:00</Time>
     <Position>
      <LatitudeDegrees>-15.7597500</LatitudeDegrees>
      <LongitudeDegrees>-47.8577800</LongitudeDegrees>
     </Position>
     <AltitudeMeters>1004.9100000000002</AltitudeMeters>
     <DistanceMeters>561.438233908202</DistanceMeters>
    </Trackpoint>
    <Trackpoint>
     <Time>2026-04-28T21:23:13+00:00</Time>
     <Position>
      <LatitudeDegrees>-15.7595100</LatitudeDegrees>
      <LongitudeDegrees>-47.8577000</LongitudeDegrees>
     </Position>
     <AltitudeMeters>1004.7300000000001</AltitudeMeters>
     <DistanceMeters>589.4900193247516</DistanceMeters>
    </Trackpoint>
    <Trackpoint>
     <Time>2026-04-28T21:23:24+00:00</Time>
     <Position>
      <LatitudeDegrees>-15.7594500</LatitudeDegrees>
      <LongitudeDegrees>-47.8576200</LongitudeDegrees>
     </Position>
     <AltitudeMeters>1004.69</AltitudeMeters>
     <DistanceMeters>600.3536949170062</DistanceMeters>
    </Trackpoint>
    <Trackpoint>
     <Time>2026-04-28T21:23:35+00:00</Time>
     <Position>
      <LatitudeDegrees>-15.7594100</LatitudeDegrees>
      <LongitudeDegrees>-47.8574800</LongitudeDegrees>
     </Position>
     <AltitudeMeters>1004.68</AltitudeMeters>
     <DistanceMeters>615.9962571909833</DistanceMeters>
    </Trackpoint>
    <Trackpoint>
     <Time>2026-04-28T21:23:45+00:00</Time>
     <Position>
      <LatitudeDegrees>-15.7594400</LatitudeDegrees>
      <LongitudeDegrees>-47.8573800</LongitudeDegrees>
     </Position>
     <AltitudeMeters>1004.7000000000002</AltitudeMeters>
     <DistanceMeters>627.2158007487617</DistanceMeters>
    </Trackpoint>
    <Trackpoint>
     <Time>2026-04-28T21:23:56+00:00</Time>
     <Position>
      <LatitudeDegrees>-15.7595300</LatitudeDegrees>
      <LongitudeDegrees>-47.8570100</LongitudeDegrees>
     </Position>
     <AltitudeMeters>1004.6700000000002</AltitudeMeters>
     <DistanceMeters>668.0935045733073</DistanceMeters>
    </Trackpoint>
    <Trackpoint>
     <Time>2026-04-28T21:24:07+00:00</Time>
     <Position>
      <LatitudeDegrees>-15.7595500</LatitudeDegrees>
      <LongitudeDegrees>-47.8569000</LongitudeDegrees>
     </Position>
     <AltitudeMeters>1004.68</AltitudeMeters>
     <DistanceMeters>680.0842492423833</DistanceMeters>
    </Trackpoint>
    <Trackpoint>
     <Time>2026-04-28T21:24:17+00:00</Time>
     <Position>
      <LatitudeDegrees>-15.7596400</LatitudeDegrees>
      <LongitudeDegrees>-47.8566800</LongitudeDegrees>
     </Position>
     <AltitudeMeters>1004.62</AltitudeMeters>
     <DistanceMeters>705.6894296503102</DistanceMeters>
    </Trackpoint>
    <Trackpoint>
     <Time>2026-04-28T21:24:28+00:00</Time>
     <Position>
      <LatitudeDegrees>-15.7596700</LatitudeDegrees>
      <LongitudeDegrees>-47.8565500</LongitudeDegrees>
     </Position>
     <AltitudeMeters>1004.5200000000001</AltitudeMeters>
     <DistanceMeters>720.0086994945053</DistanceMeters>
    </Trackpoint>
    <Trackpoint>
     <Time>2026-04-28T21:24:38+00:00</Time>
     <Position>
      <LatitudeDegrees>-15.7597800</LatitudeDegrees>
      <LongitudeDegrees>-47.8559900</LongitudeDegrees>
     </Position>
     <AltitudeMeters>1004.5200000000001</AltitudeMeters>
     <DistanceMeters>781.2280165812394</DistanceMeters>
    </Trackpoint>
    <Trackpoint>
     <Time>2026-04-28T21:24:49+00:00</Time>
     <Position>
      <LatitudeDegrees>-15.7597800</LatitudeDegrees>
      <LongitudeDegrees>-47.8559600</LongitudeDegrees>
     </Position>
     <AltitudeMeters>1004.5300000000001</AltitudeMeters>
     <DistanceMeters>784.4413751188465</DistanceMeters>
    </Trackpoint>
    <Trackpoint>
     <Time>2026-04-28T21:25:00+00:00</Time>
     <Position>
      <LatitudeDegrees>-15.7598400</LatitudeDegrees>
      <LongitudeDegrees>-47.8559000</LongitudeDegrees>
     </Position>
     <AltitudeMeters>1004.51</AltitudeMeters>
     <DistanceMeters>793.7093253718366</DistanceMeters>
    </Trackpoint>
    <Trackpoint>
     <Time>2026-04-28T21:25:10+00:00</Time>
     <Position>
      <LatitudeDegrees>-15.7599700</LatitudeDegrees>
      <LongitudeDegrees>-47.8558400</LongitudeDegrees>
     </Position>
     <AltitudeMeters>1004.58</AltitudeMeters>
     <DistanceMeters>809.5408871753164</DistanceMeters>
    </Trackpoint>
    <Trackpoint>
     <Time>2026-04-28T21:25:21+00:00</Time>
     <Position>
      <LatitudeDegrees>-15.7600300</LatitudeDegrees>
      <LongitudeDegrees>-47.8558700</LongitudeDegrees>
     </Position>
     <AltitudeMeters>1004.8700000000001</AltitudeMeters>
     <DistanceMeters>816.9515465559643</DistanceMeters>
    </Trackpoint>
    <Trackpoint>
     <Time>2026-04-28T21:25:32+00:00</Time>
     <Position>
      <LatitudeDegrees>-15.7600800</LatitudeDegrees>
      <LongitudeDegrees>-47.8558800</LongitudeDegrees>
     </Position>
     <AltitudeMeters>1004.8700000000001</AltitudeMeters>
     <DistanceMeters>822.6184782266398</DistanceMeters>
    </Trackpoint>
    <Trackpoint>
     <Time>2026-04-28T21:25:42+00:00</Time>
     <Position>
      <LatitudeDegrees>-15.7600900</LatitudeDegrees>
      <LongitudeDegrees>-47.8558800</LongitudeDegrees>
     </Position>
     <AltitudeMeters>1004.83</AltitudeMeters>
     <DistanceMeters>822.6184782266398</DistanceMeters>
    </Trackpoint>
    <Trackpoint>
     <Time>2026-04-28T21:25:53+00:00</Time>
     <Position>
      <LatitudeDegrees>-15.7606800</LatitudeDegrees>
      <LongitudeDegrees>-47.8558900</LongitudeDegrees>
     </Position>
     <AltitudeMeters>1005.7500000000001</AltitudeMeters>
     <DistanceMeters>888.2916645223114</DistanceMeters>
    </Trackpoint>
    <Trackpoint>
     <Time>2026-04-28T21:26:04+00:00</Time>
     <Position>
      <LatitudeDegrees>-15.7613800</LatitudeDegrees>
      <LongitudeDegrees>-47.8559700</LongitudeDegrees>
     </Position>
     <AltitudeMeters>1007.7500000000001</AltitudeMeters>
     <DistanceMeters>966.6684656366592</DistanceMeters>
    </Trackpoint>
    <Trackpoint>
     <Time>2026-04-28T21:26:14+00:00</Time>
     <Position>
      <LatitudeDegrees>-15.7617000</LatitudeDegrees>
      <LongitudeDegrees>-47.8560200</LongitudeDegrees>
     </Position>
     <AltitudeMeters>1008.5700000000002</AltitudeMeters>
     <DistanceMeters>1002.6835028013542</DistanceMeters>
    </Trackpoint>
    <Trackpoint>
     <Time>2026-04-28T21:26:25+00:00</Time>
     <Position>
      <LatitudeDegrees>-15.7619200</LatitudeDegrees>
      <LongitudeDegrees>-47.8560400</LongitudeDegrees>
     </Position>
     <AltitudeMeters>1009.5</AltitudeMeters>
     <DistanceMeters>1027.2620858393811</DistanceMeters>
    </Trackpoint>
    <Trackpoint>
     <Time>2026-04-28T21:26:36+00:00</Time>
     <Position>
      <LatitudeDegrees>-15.7619300</LatitudeDegrees>
      <LongitudeDegrees>-47.8560400</LongitudeDegrees>
     </Position>
     <AltitudeMeters>1009.52</AltitudeMeters>
     <DistanceMeters>1027.2620858393811</DistanceMeters>
    </Trackpoint>
    <Trackpoint>
     <Time>2026-04-28T21:26:46+00:00</Time>
     <Position>
      <LatitudeDegrees>-15.7620900</LatitudeDegrees>
      <LongitudeDegrees>-47.8560500</LongitudeDegrees>
     </Position>
     <AltitudeMeters>1010.1</AltitudeMeters>
     <DistanceMeters>1045.1015789743597</DistanceMeters>
    </Trackpoint>
    <Trackpoint>
     <Time>2026-04-28T21:26:57+00:00</Time>
     <Position>
      <LatitudeDegrees>-15.7625300</LatitudeDegrees>
      <LongitudeDegrees>-47.8561450</LongitudeDegrees>
     </Position>
     <AltitudeMeters>1012.9700000000001</AltitudeMeters>
     <DistanceMeters>1095.1176679182436</DistanceMeters>
    </Trackpoint>
    <Trackpoint>
     <Time>2026-04-28T21:27:08+00:00</Time>
     <Position>
      <LatitudeDegrees>-15.7629700</LatitudeDegrees>
      <LongitudeDegrees>-47.8562400</LongitudeDegrees>
     </Position>
     <AltitudeMeters>1015.02</AltitudeMeters>
     <DistanceMeters>1145.1338006120302</DistanceMeters>
    </Trackpoint>
    <Trackpoint>
     <Time>2026-04-28T21:27:18+00:00</Time>
     <Position>
      <LatitudeDegrees>-15.7633000</LatitudeDegrees>
      <LongitudeDegrees>-47.8561800</LongitudeDegrees>
     </Position>
     <AltitudeMeters>1015.3100000000002</AltitudeMeters>
     <DistanceMeters>1182.419401517926</DistanceMeters>
    </Trackpoint>
    <Trackpoint>
     <Time>2026-04-28T21:27:29+00:00</Time>
     <Position>
      <LatitudeDegrees>-15.7635600</LatitudeDegrees>
      <LongitudeDegrees>-47.8561700</LongitudeDegrees>
     </Position>
     <AltitudeMeters>1015.5800000000002</AltitudeMeters>
     <DistanceMeters>1211.3760948077595</DistanceMeters>
    </Trackpoint>
    <Trackpoint>
     <Time>2026-04-28T21:27:40+00:00</Time>
     <Position>
      <LatitudeDegrees>-15.7636800</LatitudeDegrees>
      <LongitudeDegrees>-47.8561600</LongitudeDegrees>
     </Position>
     <AltitudeMeters>1015.71</AltitudeMeters>
     <DistanceMeters>1224.7744581622273</DistanceMeters>
    </Trackpoint>
    <Trackpoint>
     <Time>2026-04-28T21:27:50+00:00</Time>
     <Position>
      <LatitudeDegrees>-15.7643800</LatitudeDegrees>
      <LongitudeDegrees>-47.8562900</LongitudeDegrees>
     </Position>
     <AltitudeMeters>1016.3</AltitudeMeters>
     <DistanceMeters>1303.9159891330555</DistanceMeters>
    </Trackpoint>
    <Trackpoint>
     <Time>2026-04-28T21:28:01+00:00</Time>
     <Position>
      <LatitudeDegrees>-15.7644800</LatitudeDegrees>
      <LongitudeDegrees>-47.8563400</LongitudeDegrees>
     </Position>
     <AltitudeMeters>1016.45</AltitudeMeters>
     <DistanceMeters>1316.2670374215056</DistanceMeters>
    </Trackpoint>
    <Trackpoint>
     <Time>2026-04-28T21:28:12+00:00</Time>
     <Position>
      <LatitudeDegrees>-15.7644900</LatitudeDegrees>
      <LongitudeDegrees>-47.8563400</LongitudeDegrees>
     </Position>
     <AltitudeMeters>1016.4600000000002</AltitudeMeters>
     <DistanceMeters>1316.2670374215056</DistanceMeters>
    </Trackpoint>
    <Trackpoint>
     <Time>2026-04-28T21:28:22+00:00</Time>
     <Position>
      <LatitudeDegrees>-15.7648600</LatitudeDegrees>
      <LongitudeDegrees>-47.8565200</LongitudeDegrees>
     </Position>
     <AltitudeMeters>1017.4000000000001</AltitudeMeters>
     <DistanceMeters>1361.736251213144</DistanceMeters>
    </Trackpoint>
    <Trackpoint>
     <Time>2026-04-28T21:28:33+00:00</Time>
     <Position>
      <LatitudeDegrees>-15.7648700</LatitudeDegrees>
      <LongitudeDegrees>-47.8565200</LongitudeDegrees>
     </Position>
     <AltitudeMeters>1017.4300000000001</AltitudeMeters>
     <DistanceMeters>1361.736251213144</DistanceMeters>
    </Trackpoint>
    <Trackpoint>
     <Time>2026-04-28T21:28:44+00:00</Time>
     <Position>
      <LatitudeDegrees>-15.7649400</LatitudeDegrees>
      <LongitudeDegrees>-47.8566100</LongitudeDegrees>
     </Position>
     <AltitudeMeters>1017.6500000000001</AltitudeMeters>
     <DistanceMeters>1374.1306585729835</DistanceMeters>
    </Trackpoint>
    <Trackpoint>
     <Time>2026-04-28T21:28:54+00:00</Time>
     <Position>
      <LatitudeDegrees>-15.7650000</LatitudeDegrees>
      <LongitudeDegrees>-47.8567900</LongitudeDegrees>
     </Position>
     <AltitudeMeters>1017.9500000000002</AltitudeMeters>
     <DistanceMeters>1394.5340270430117</DistanceMeters>
    </Trackpoint>
    <Trackpoint>
     <Time>2026-04-28T21:29:05+00:00</Time>
     <Position>
      <LatitudeDegrees>-15.7650200</LatitudeDegrees>
      <LongitudeDegrees>-47.8569500</LongitudeDegrees>
     </Position>
     <AltitudeMeters>1018.0400000000001</AltitudeMeters>
     <DistanceMeters>1411.8154503462688</DistanceMeters>
    </Trackpoint>
    <Trackpoint>
     <Time>2026-04-28T21:29:16+00:00</Time>
     <Position>
      <LatitudeDegrees>-15.7650200</LatitudeDegrees>
      <LongitudeDegrees>-47.8569600</LongitudeDegrees>
     </Position>
     <AltitudeMeters>1018.0600000000002</AltitudeMeters>
     <DistanceMeters>1411.8154503462688</DistanceMeters>
    </Trackpoint>
    <Trackpoint>
     <Time>2026-04-28T21:29:26+00:00</Time>
     <Position>
      <LatitudeDegrees>-15.7650400</LatitudeDegrees>
      <LongitudeDegrees>-47.8572800</LongitudeDegrees>
     </Position>
     <AltitudeMeters>1018.3100000000001</AltitudeMeters>
     <DistanceMeters>1446.1625908399317</DistanceMeters>
    </Trackpoint>
    <Trackpoint>
     <Time>2026-04-28T21:29:37+00:00</Time>
     <Position>
      <LatitudeDegrees>-15.7649900</LatitudeDegrees>
      <LongitudeDegrees>-47.8574600</LongitudeDegrees>
     </Position>
     <AltitudeMeters>1018.17</AltitudeMeters>
     <DistanceMeters>1466.2292766400765</DistanceMeters>
    </Trackpoint>
    <Trackpoint>
     <Time>2026-04-28T21:29:48+00:00</Time>
     <Position>
      <LatitudeDegrees>-15.7648700</LatitudeDegrees>
      <LongitudeDegrees>-47.8575900</LongitudeDegrees>
     </Position>
     <AltitudeMeters>1017.86</AltitudeMeters>
     <DistanceMeters>1485.5231161590852</DistanceMeters>
    </Trackpoint>
    <Trackpoint>
     <Time>2026-04-28T21:29:58+00:00</Time>
     <Position>
      <LatitudeDegrees>-15.7649900</LatitudeDegrees>
      <LongitudeDegrees>-47.8574600</LongitudeDegrees>
     </Position>
     <AltitudeMeters>1018.17</AltitudeMeters>
     <DistanceMeters>1504.816955678094</DistanceMeters>
    </Trackpoint>
    <Trackpoint>
     <Time>2026-04-28T21:30:09+00:00</Time>
     <Position>
      <LatitudeDegrees>-15.7650400</LatitudeDegrees>
      <LongitudeDegrees>-47.8572800</LongitudeDegrees>
     </Position>
     <AltitudeMeters>1018.2800000000001</AltitudeMeters>
     <DistanceMeters>1524.8836414782388</DistanceMeters>
    </Trackpoint>
    <Trackpoint>
     <Time>2026-04-28T21:30:19+00:00</Time>
     <Position>
      <LatitudeDegrees>-15.7650000</LatitudeDegrees>
      <LongitudeDegrees>-47.8567900</LongitudeDegrees>
     </Position>
     <AltitudeMeters>1017.9500000000002</AltitudeMeters>
     <DistanceMeters>1577.5556138153324</DistanceMeters>
    </Trackpoint>
    <Trackpoint>
     <Time>2026-04-28T21:30:30+00:00</Time>
     <Position>
      <LatitudeDegrees>-15.7649400</LatitudeDegrees>
      <LongitudeDegrees>-47.8566100</LongitudeDegrees>
     </Position>
     <AltitudeMeters>1017.6500000000001</AltitudeMeters>
     <DistanceMeters>1597.9589822853604</DistanceMeters>
    </Trackpoint>
    <Trackpoint>
     <Time>2026-04-28T21:30:41+00:00</Time>
     <Position>
      <LatitudeDegrees>-15.7648500</LatitudeDegrees>
      <LongitudeDegrees>-47.8565000</LongitudeDegrees>
     </Position>
     <AltitudeMeters>1017.4500000000002</AltitudeMeters>
     <DistanceMeters>1613.4234073002228</DistanceMeters>
    </Trackpoint>
    <Trackpoint>
     <Time>2026-04-28T21:30:51+00:00</Time>
     <Position>
      <LatitudeDegrees>-15.7643800</LatitudeDegrees>
      <LongitudeDegrees>-47.8562900</LongitudeDegrees>
     </Position>
     <AltitudeMeters>1016.3</AltitudeMeters>
     <DistanceMeters>1670.363394588342</DistanceMeters>
    </Trackpoint>
    <Trackpoint>
     <Time>2026-04-28T21:31:02+00:00</Time>
     <Position>
      <LatitudeDegrees>-15.7636800</LatitudeDegrees>
      <LongitudeDegrees>-47.8561600</LongitudeDegrees>
     </Position>
     <AltitudeMeters>1015.71</AltitudeMeters>
     <DistanceMeters>1749.5049255591703</DistanceMeters>
    </Trackpoint>
    <Trackpoint>
     <Time>2026-04-28T21:31:13+00:00</Time>
     <Position>
      <LatitudeDegrees>-15.7633000</LatitudeDegrees>
      <LongitudeDegrees>-47.8561800</LongitudeDegrees>
     </Position>
     <AltitudeMeters>1015.3100000000002</AltitudeMeters>
     <DistanceMeters>1791.8515025324873</DistanceMeters>
    </Trackpoint>
    <Trackpoint>
     <Time>2026-04-28T21:31:23+00:00</Time>
     <Position>
      <LatitudeDegrees>-15.7629700</LatitudeDegrees>
      <LongitudeDegrees>-47.8562400</LongitudeDegrees>
     </Position>
     <AltitudeMeters>1015.02</AltitudeMeters>
     <DistanceMeters>1829.137103438383</DistanceMeters>
    </Trackpoint>
    <Trackpoint>
     <Time>2026-04-28T21:31:34+00:00</Time>
     <Position>
      <LatitudeDegrees>-15.7633000</LatitudeDegrees>
      <LongitudeDegrees>-47.8561800</LongitudeDegrees>
     </Position>
     <AltitudeMeters>1015.3100000000002</AltitudeMeters>
     <DistanceMeters>1866.4227043442786</DistanceMeters>
    </Trackpoint>
    <Trackpoint>
     <Time>2026-04-28T21:31:45+00:00</Time>
     <Position>
      <LatitudeDegrees>-15.7636800</LatitudeDegrees>
      <LongitudeDegrees>-47.8561600</LongitudeDegrees>
     </Position>
     <AltitudeMeters>1015.71</AltitudeMeters>
     <DistanceMeters>1908.7692813175959</DistanceMeters>
    </Trackpoint>
    <Trackpoint>
     <Time>2026-04-28T21:31:55+00:00</Time>
     <Position>
      <LatitudeDegrees>-15.7643800</LatitudeDegrees>
      <LongitudeDegrees>-47.8562900</LongitudeDegrees>
     </Position>
     <AltitudeMeters>1016.3</AltitudeMeters>
     <DistanceMeters>1987.910812288424</DistanceMeters>
    </Trackpoint>
    <Trackpoint>
     <Time>2026-04-28T21:32:06+00:00</Time>
     <Position>
      <LatitudeDegrees>-15.7648500</LatitudeDegrees>
      <LongitudeDegrees>-47.8565000</LongitudeDegrees>
     </Position>
     <AltitudeMeters>1017.4500000000002</AltitudeMeters>
     <DistanceMeters>2044.850799576543</DistanceMeters>
    </Trackpoint>
    <Trackpoint>
     <Time>2026-04-28T21:32:17+00:00</Time>
     <Position>
      <LatitudeDegrees>-15.7649400</LatitudeDegrees>
      <LongitudeDegrees>-47.8566100</LongitudeDegrees>
     </Position>
     <AltitudeMeters>1017.6500000000001</AltitudeMeters>
     <DistanceMeters>2060.3152245914057</DistanceMeters>
    </Trackpoint>
    <Trackpoint>
     <Time>2026-04-28T21:32:27+00:00</Time>
     <Position>
      <LatitudeDegrees>-15.7650000</LatitudeDegrees>
      <LongitudeDegrees>-47.8567900</LongitudeDegrees>
     </Position>
     <AltitudeMeters>1017.9500000000002</AltitudeMeters>
     <DistanceMeters>2080.7185930614337</DistanceMeters>
    </Trackpoint>
    <Trackpoint>
     <Time>2026-04-28T21:32:38+00:00</Time>
     <Position>
      <LatitudeDegrees>-15.7650400</LatitudeDegrees>
      <LongitudeDegrees>-47.8572800</LongitudeDegrees>
     </Position>
     <AltitudeMeters>1018.2800000000001</AltitudeMeters>
     <DistanceMeters>2133.390565398527</DistanceMeters>
    </Trackpoint>
    <Trackpoint>
     <Time>2026-04-28T21:32:49+00:00</Time>
     <Position>
      <LatitudeDegrees>-15.7649900</LatitudeDegrees>
      <LongitudeDegrees>-47.8574600</LongitudeDegrees>
     </Position>
     <AltitudeMeters>1018.17</AltitudeMeters>
     <DistanceMeters>2153.4572511986717</DistanceMeters>
    </Trackpoint>
    <Trackpoint>
     <Time>2026-04-28T21:32:59+00:00</Time>
     <Position>
      <LatitudeDegrees>-15.7648700</LatitudeDegrees>
      <LongitudeDegrees>-47.8575900</LongitudeDegrees>
     </Position>
     <AltitudeMeters>1017.86</AltitudeMeters>
     <DistanceMeters>2172.7510907176807</DistanceMeters>
    </Trackpoint>
    <Trackpoint>
     <Time>2026-04-28T21:33:10+00:00</Time>
     <Position>
      <LatitudeDegrees>-15.7647600</LatitudeDegrees>
      <LongitudeDegrees>-47.8577900</LongitudeDegrees>
     </Position>
     <AltitudeMeters>1017.4800000000001</AltitudeMeters>
     <DistanceMeters>2197.424466047559</DistanceMeters>
    </Trackpoint>
    <Trackpoint>
     <Time>2026-04-28T21:33:21+00:00</Time>
     <Position>
      <LatitudeDegrees>-15.7647500</LatitudeDegrees>
      <LongitudeDegrees>-47.8579000</LongitudeDegrees>
     </Position>
     <AltitudeMeters>1017.4000000000001</AltitudeMeters>
     <DistanceMeters>2209.2589413825986</DistanceMeters>
    </Trackpoint>
    <Trackpoint>
     <Time>2026-04-28T21:33:31+00:00</Time>
     <Position>
      <LatitudeDegrees>-15.7647500</LatitudeDegrees>
      <LongitudeDegrees>-47.8579700</LongitudeDegrees>
     </Position>
     <AltitudeMeters>1017.39</AltitudeMeters>
     <DistanceMeters>2216.7565943945738</DistanceMeters>
    </Trackpoint>
    <Trackpoint>
     <Time>2026-04-28T21:33:42+00:00</Time>
     <Position>
      <LatitudeDegrees>-15.7646500</LatitudeDegrees>
      <LongitudeDegrees>-47.8581600</LongitudeDegrees>
     </Position>
     <AltitudeMeters>1017.05</AltitudeMeters>
     <DistanceMeters>2239.951883279375</DistanceMeters>
    </Trackpoint>
    <Trackpoint>
     <Time>2026-04-28T21:33:53+00:00</Time>
     <Position>
      <LatitudeDegrees>-15.7646200</LatitudeDegrees>
      <LongitudeDegrees>-47.8582900</LongitudeDegrees>
     </Position>
     <AltitudeMeters>1017.0799999999999</AltitudeMeters>
     <DistanceMeters>2254.2708209312405</DistanceMeters>
    </Trackpoint>
    <Trackpoint>
     <Time>2026-04-28T21:34:03+00:00</Time>
     <Position>
      <LatitudeDegrees>-15.7644700</LatitudeDegrees>
      <LongitudeDegrees>-47.8584600</LongitudeDegrees>
     </Position>
     <AltitudeMeters>1016.7000000000002</AltitudeMeters>
     <DistanceMeters>2278.9741538164094</DistanceMeters>
    </Trackpoint>
    <Trackpoint>
     <Time>2026-04-28T21:34:14+00:00</Time>
     <Position>
      <LatitudeDegrees>-15.7644000</LatitudeDegrees>
      <LongitudeDegrees>-47.8585200</LongitudeDegrees>
     </Position>
     <AltitudeMeters>1016.4600000000002</AltitudeMeters>
     <DistanceMeters>2289.073449167249</DistanceMeters>
    </Trackpoint>
    <Trackpoint>
     <Time>2026-04-28T21:34:25+00:00</Time>
     <Position>
      <LatitudeDegrees>-15.7641400</LatitudeDegrees>
      <LongitudeDegrees>-47.8587000</LongitudeDegrees>
     </Position>
     <AltitudeMeters>1016.0600000000002</AltitudeMeters>
     <DistanceMeters>2323.844854340797</DistanceMeters>
    </Trackpoint>
    <Trackpoint>
     <Time>2026-04-28T21:34:35+00:00</Time>
     <Position>
      <LatitudeDegrees>-15.7637000</LatitudeDegrees>
      <LongitudeDegrees>-47.8592200</LongitudeDegrees>
     </Position>
     <AltitudeMeters>1015.6100000000001</AltitudeMeters>
     <DistanceMeters>2398.008424703406</DistanceMeters>
    </Trackpoint>
    <Trackpoint>
     <Time>2026-04-28T21:34:46+00:00</Time>
     <Position>
      <LatitudeDegrees>-15.7634200</LatitudeDegrees>
      <LongitudeDegrees>-47.8595600</LongitudeDegrees>
     </Position>
     <AltitudeMeters>1014.65</AltitudeMeters>
     <DistanceMeters>2445.9390563202855</DistanceMeters>
    </Trackpoint>
    <Trackpoint>
     <Time>2026-04-28T21:34:57+00:00</Time>
     <Position>
      <LatitudeDegrees>-15.7633900</LatitudeDegrees>
      <LongitudeDegrees>-47.8596900</LongitudeDegrees>
     </Position>
     <AltitudeMeters>1014.5300000000001</AltitudeMeters>
     <DistanceMeters>2460.2580760291253</DistanceMeters>
    </Trackpoint>
    <Trackpoint>
     <Time>2026-04-28T21:35:07+00:00</Time>
     <Position>
      <LatitudeDegrees>-15.7633000</LatitudeDegrees>
      <LongitudeDegrees>-47.8598700</LongitudeDegrees>
     </Position>
     <AltitudeMeters>1014.7000000000002</AltitudeMeters>
     <DistanceMeters>2481.9846421215234</DistanceMeters>
    </Trackpoint>
    <Trackpoint>
     <Time>2026-04-28T21:35:18+00:00</Time>
     <Position>
      <LatitudeDegrees>-15.7632500</LatitudeDegrees>
      <LongitudeDegrees>-47.8599400</LongitudeDegrees>
     </Position>
     <AltitudeMeters>1015.15</AltitudeMeters>
     <DistanceMeters>2491.321795777897</DistanceMeters>
    </Trackpoint>
    <Trackpoint>
     <Time>2026-04-28T21:35:29+00:00</Time>
     <Position>
      <LatitudeDegrees>-15.7631700</LatitudeDegrees>
      <LongitudeDegrees>-47.8600300</LongitudeDegrees>
     </Position>
     <AltitudeMeters>1015.4500000000002</AltitudeMeters>
     <DistanceMeters>2504.4444090200627</DistanceMeters>
    </Trackpoint>
    <Trackpoint>
     <Time>2026-04-28T21:35:39+00:00</Time>
     <Position>
      <LatitudeDegrees>-15.7631700</LatitudeDegrees>
      <LongitudeDegrees>-47.8600800</LongitudeDegrees>
     </Position>
     <AltitudeMeters>1015.4500000000002</AltitudeMeters>
     <DistanceMeters>2509.79991714734</DistanceMeters>
    </Trackpoint>
    <Trackpoint>
     <Time>2026-04-28T21:35:50+00:00</Time>
     <Position>
      <LatitudeDegrees>-15.7631600</LatitudeDegrees>
      <LongitudeDegrees>-47.8602500</LongitudeDegrees>
     </Position>
     <AltitudeMeters>1015.39</AltitudeMeters>
     <DistanceMeters>2528.0426266810414</DistanceMeters>
    </Trackpoint>
    <Trackpoint>
     <Time>2026-04-28T21:36:00+00:00</Time>
     <Position>
      <LatitudeDegrees>-15.7631200</LatitudeDegrees>
      <LongitudeDegrees>-47.8603000</LongitudeDegrees>
     </Position>
     <AltitudeMeters>1015.3700000000001</AltitudeMeters>
     <DistanceMeters>2535.0068381223564</DistanceMeters>
    </Trackpoint>
    <Trackpoint>
     <Time>2026-04-28T21:36:11+00:00</Time>
     <Position>
      <LatitudeDegrees>-15.7630700</LatitudeDegrees>
      <LongitudeDegrees>-47.8603700</LongitudeDegrees>
     </Position>
     <AltitudeMeters>1015.2400000000001</AltitudeMeters>
     <DistanceMeters>2544.3439971178423</DistanceMeters>
    </Trackpoint>
    <Trackpoint>
     <Time>2026-04-28T21:36:22+00:00</Time>
     <Position>
      <LatitudeDegrees>-15.7624700</LatitudeDegrees>
      <LongitudeDegrees>-47.8610500</LongitudeDegrees>
     </Position>
     <AltitudeMeters>1012.0100000000001</AltitudeMeters>
     <DistanceMeters>2643.157798149808</DistanceMeters>
    </Trackpoint>
    <Trackpoint>
     <Time>2026-04-28T21:36:32+00:00</Time>
     <Position>
      <LatitudeDegrees>-15.7623100</LatitudeDegrees>
      <LongitudeDegrees>-47.8614400</LongitudeDegrees>
     </Position>
     <AltitudeMeters>1014.8700000000001</AltitudeMeters>
     <DistanceMeters>2688.568084703624</DistanceMeters>
    </Trackpoint>
    <Trackpoint>
     <Time>2026-04-28T21:36:43+00:00</Time>
     <Position>
      <LatitudeDegrees>-15.7623000</LatitudeDegrees>
      <LongitudeDegrees>-47.8615400</LongitudeDegrees>
     </Position>
     <AltitudeMeters>1015.12</AltitudeMeters>
     <DistanceMeters>2699.3368134972975</DistanceMeters>
    </Trackpoint>
    <Trackpoint>
     <Time>2026-04-28T21:36:54+00:00</Time>
     <Position>
      <LatitudeDegrees>-15.7622800</LatitudeDegrees>
      <LongitudeDegrees>-47.8617100</LongitudeDegrees>
     </Position>
     <AltitudeMeters>1015.94</AltitudeMeters>
     <DistanceMeters>2717.6811676183893</DistanceMeters>
    </Trackpoint>
    <Trackpoint>
     <Time>2026-04-28T21:37:04+00:00</Time>
     <Position>
      <LatitudeDegrees>-15.7620800</LatitudeDegrees>
      <LongitudeDegrees>-47.8621600</LongitudeDegrees>
     </Position>
     <AltitudeMeters>1015.4000000000001</AltitudeMeters>
     <DistanceMeters>2770.772510071355</DistanceMeters>
    </Trackpoint>
    <Trackpoint>
     <Time>2026-04-28T21:37:15+00:00</Time>
     <Position>
      <LatitudeDegrees>-15.7620000</LatitudeDegrees>
      <LongitudeDegrees>-47.8622500</LongitudeDegrees>
     </Position>
     <AltitudeMeters>1015.29</AltitudeMeters>
     <DistanceMeters>2783.8951641314648</DistanceMeters>
    </Trackpoint>
    <Trackpoint>
     <Time>2026-04-28T21:37:26+00:00</Time>
     <Position>
      <LatitudeDegrees>-15.7618900</LatitudeDegrees>
      <LongitudeDegrees>-47.8623000</LongitudeDegrees>
     </Position>
     <AltitudeMeters>1015.05</AltitudeMeters>
     <DistanceMeters>2797.257844455979</DistanceMeters>
    </Trackpoint>
    <Trackpoint>
     <Time>2026-04-28T21:37:36+00:00</Time>
     <Position>
      <LatitudeDegrees>-15.7617600</LatitudeDegrees>
      <LongitudeDegrees>-47.8624400</LongitudeDegrees>
     </Position>
     <AltitudeMeters>1014.45</AltitudeMeters>
     <DistanceMeters>2818.0953440948124</DistanceMeters>
    </Trackpoint>
    <Trackpoint>
     <Time>2026-04-28T21:37:47+00:00</Time>
     <Position>
      <LatitudeDegrees>-15.7613800</LatitudeDegrees>
      <LongitudeDegrees>-47.8628500</LongitudeDegrees>
     </Position>
     <AltitudeMeters>1012.75</AltitudeMeters>
     <DistanceMeters>2879.0643183765</DistanceMeters>
    </Trackpoint>
    <Trackpoint>
     <Time>2026-04-28T21:37:58+00:00</Time>
     <Position>
      <LatitudeDegrees>-15.7613600</LatitudeDegrees>
      <LongitudeDegrees>-47.8628700</LongitudeDegrees>
     </Position>
     <AltitudeMeters>1012.75</AltitudeMeters>
     <DistanceMeters>2882.153623712502</DistanceMeters>
    </Trackpoint>
    <Trackpoint>
     <Time>2026-04-28T21:38:08+00:00</Time>
     <Position>
      <LatitudeDegrees>-15.7608100</LatitudeDegrees>
      <LongitudeDegrees>-47.8631200</LongitudeDegrees>
     </Position>
     <AltitudeMeters>1010.17</AltitudeMeters>
     <DistanceMeters>2948.967070801321</DistanceMeters>
    </Trackpoint>
    <Trackpoint>
     <Time>2026-04-28T21:38:19+00:00</Time>
     <Position>
      <LatitudeDegrees>-15.7607900</LatitudeDegrees>
      <LongitudeDegrees>-47.8631200</LongitudeDegrees>
     </Position>
     <AltitudeMeters>1010.17</AltitudeMeters>
     <DistanceMeters>2951.192984390053</DistanceMeters>
    </Trackpoint>
    <Trackpoint>
     <Time>2026-04-28T21:38:30+00:00</Time>
     <Position>
      <LatitudeDegrees>-15.7608000</LatitudeDegrees>
      <LongitudeDegrees>-47.8631200</LongitudeDegrees>
     </Position>
     <AltitudeMeters>1010.1500000000001</AltitudeMeters>
     <DistanceMeters>2951.192984390053</DistanceMeters>
    </Trackpoint>
    <Trackpoint>
     <Time>2026-04-28T21:38:40+00:00</Time>
     <Position>
      <LatitudeDegrees>-15.7605900</LatitudeDegrees>
      <LongitudeDegrees>-47.8631000</LongitudeDegrees>
     </Position>
     <AltitudeMeters>1009.25</AltitudeMeters>
     <DistanceMeters>2974.6630475139586</DistanceMeters>
    </Trackpoint>
    <Trackpoint>
     <Time>2026-04-28T21:38:51+00:00</Time>
     <Position>
      <LatitudeDegrees>-15.7604500</LatitudeDegrees>
      <LongitudeDegrees>-47.8630100</LongitudeDegrees>
     </Position>
     <AltitudeMeters>1008.7300000000001</AltitudeMeters>
     <DistanceMeters>2992.9854451267283</DistanceMeters>
    </Trackpoint>
    <Trackpoint>
     <Time>2026-04-28T21:39:02+00:00</Time>
     <Position>
      <LatitudeDegrees>-15.7602900</LatitudeDegrees>
      <LongitudeDegrees>-47.8629600</LongitudeDegrees>
     </Position>
     <AltitudeMeters>1008.1300000000002</AltitudeMeters>
     <DistanceMeters>3011.5806730643058</DistanceMeters>
    </Trackpoint>
    <Trackpoint>
     <Time>2026-04-28T21:39:12+00:00</Time>
     <Position>
      <LatitudeDegrees>-15.7599900</LatitudeDegrees>
      <LongitudeDegrees>-47.8627700</LongitudeDegrees>
     </Position>
     <AltitudeMeters>1006.1</AltitudeMeters>
     <DistanceMeters>3050.6828251192287</DistanceMeters>
    </Trackpoint>
   </Track>
  </Course>
 </Courses>
</TrainingCenterDatabase>
